1 08820U 76039A   03284.77326730 -.00000008  00000-0  10000-3 0  9684
2 08820 109.8207 221.5003 0044330 276.4589  83.0908  6.38664544384509
